     3.00           N                   E                   RINEX VERSION / TYPE
BRD_USR             ESA                 20190106 182039  UTCPGM / RUN BY / DATE
 GAL   4.9750E+01  3.9062E-03 -3.2654E-03  0.0000E+00       IONOSPHERIC CORR
GAUT  0.0000000000E+00 0.000000000E+00      0 2035 GSTB   0 TIME SYSTEM CORR
GPGA -2.1245796233E-09 4.440892099E-15  86400 2035 GSTB   0 TIME SYSTEM CORR
                                                            END OF HEADER
E09 2019 01 06 16 10 00 6.566202442627E-03-1.135447291745E-11 0.000000000000E+00
     9.700000000000E+01 3.587500000000E+01 3.643366046534E-09-1.586800325814E+00
     1.670792698860E-06 2.461086260155E-04 5.738809704781E-06 5.440608306885E+03
     5.820000000000E+04 5.587935447693E-09 1.235612238038E+00 4.284083843231E-08
     9.582264450862E-01 2.171562500000E+02 1.280906273745E-01-5.716666693543E-09
     5.418082827755E-10 2.580000000000E+02 2.035000000000E+03 0.000000000000E+00
     3.120000000000E+00 0.000000000000E+00-3.492459654808E-09 0.000000000000E+00
     5.890000000000E+04 0.000000000000E+00 0.000000000000E+00 0.000000000000E+00
E11 2019 01 06 16 10 00 5.719163746107E-03 1.037392394210E-12 0.000000000000E+00
     9.700000000000E+01-1.555937500000E+02 2.750114553310E-09 9.845893216744E-01
    -7.234513759613E-06 2.433143090457E-04 1.771375536919E-06 5.440610521317E+03
     5.820000000000E+04-3.539025783539E-08-8.609213633676E-01-4.097819328308E-08
     9.819556829214E-01 3.116250000000E+02-3.479307295114E-01-5.683093866528E-09
    -2.592965150264E-10 2.580000000000E+02 2.035000000000E+03 0.000000000000E+00
     3.120000000000E+00 0.000000000000E+00-1.839362084866E-08 0.000000000000E+00
     5.890000000000E+04 0.000000000000E+00 0.000000000000E+00 0.000000000000E+00
E12 2019 01 06 16 10 00 5.883324018214E-03 8.436984444415E-11 0.000000000000E+00
     9.700000000000E+01-1.598750000000E+02 2.857261873569E-09 2.338676673785E+00
    -7.526949048042E-06 3.721495158970E-04 1.035630702972E-06 5.440607364655E+03
     5.820000000000E+04 2.421438694000E-08-8.609369902585E-01-3.725290298462E-08
     9.819696859732E-01 3.276875000000E+02-8.983603394455E-01-5.712023642998E-09
    -2.392956819114E-10 2.580000000000E+02 2.035000000000E+03 0.000000000000E+00
     3.120000000000E+00 0.000000000000E+00-1.559965312481E-08 0.000000000000E+00
     5.890000000000E+04 0.000000000000E+00 0.000000000000E+00 0.000000000000E+00
E13 2019 01 06 16 10 00 3.814036608674E-04 3.979039320257E-13 0.000000000000E+00
     9.700000000000E+01-1.782187500000E+02 2.839761144593E-09-8.927421459280E-01
    -8.201226592064E-06 3.325967118144E-04 1.262873411179E-06 5.440598203659E+03
     5.820000000000E+04-3.352761268616E-08-8.662209947699E-01 7.636845111847E-08
     9.851964180482E-01 3.258125000000E+02-1.605806500446E+00-5.724881321429E-09
    -2.835832409517E-10 2.580000000000E+02 2.035000000000E+03 0.000000000000E+00
     3.120000000000E+00 5.600000000000E+01-4.656612873077E-09 0.000000000000E+00
     5.890000000000E+04 0.000000000000E+00 0.000000000000E+00 0.000000000000E+00
E15 2019 01 06 16 10 00 9.236895712093E-04-1.080024958355E-12 0.000000000000E+00
     9.700000000000E+01-1.768437500000E+02 2.808688421718E-09-3.179265942331E-02
    -8.210539817810E-06 3.840111894533E-04 1.957640051842E-06 5.440601554871E+03
     5.820000000000E+04-3.539025783539E-08-8.662324040680E-01 1.862645149231E-08
     9.851540899764E-01 3.092187500000E+02-1.684540967984E+00-5.732024476113E-09
    -3.103700710164E-10 2.580000000000E+02 2.035000000000E+03 0.000000000000E+00
     3.120000000000E+00 5.600000000000E+01 1.164153218269E-09 0.000000000000E+00
     5.890000000000E+04 0.000000000000E+00 0.000000000000E+00 0.000000000000E+00
E18 2019 01 06 16 10 00 5.626297148410E-03-2.846434199455E-11 0.000000000000E+00
     9.700000000000E+01-2.303125000000E+01 1.692213344621E-09-1.585484091605E+00
     8.214265108109E-07 1.664284545695E-01-1.812353730202E-06 5.289360801697E+03
     5.820000000000E+04 7.031485438347E-06-1.444383692790E+00 9.685754776001E-08
     8.817785199690E-01 3.561250000000E+02 1.438062989919E+00-1.739715323269E-09
     1.928651764659E-10 2.580000000000E+02 2.035000000000E+03 0.000000000000E+00
     3.120000000000E+00 5.600000000000E+01 1.420266926289E-08 0.000000000000E+00
     5.890000000000E+04 0.000000000000E+00 0.000000000000E+00 0.000000000000E+00
E19 2019 01 06 16 10 00-9.330979082733E-06 3.268496584496E-13 0.000000000000E+00
     9.700000000000E+01 3.003125000000E+01 3.588363755468E-09-2.097364255068E+00
     1.434236764908E-06 1.398150343448E-04 6.042420864105E-06 5.440606540680E+03
     5.820000000000E+04 1.862645149231E-09 1.240968551664E+00-2.235174179077E-08
     9.579828428935E-01 2.123125000000E+02 2.288814474493E+00-5.594518748447E-09
     5.428797559780E-10 2.580000000000E+02 2.035000000000E+03 0.000000000000E+00
     3.120000000000E+00 0.000000000000E+00-8.614733815193E-09 0.000000000000E+00
     5.890000000000E+04 0.000000000000E+00 0.000000000000E+00 0.000000000000E+00
E25 2019 01 06 16 10 00 1.931810053065E-03-1.129762949859E-11 0.000000000000E+00
     9.700000000000E+01 1.413750000000E+02 2.302953070096E-09-2.932770157626E+00
     6.478279829025E-06 2.187641803175E-04 1.158565282822E-05 5.440635606766E+03
     5.820000000000E+04 8.381903171539E-08-2.949161227214E+00 9.313225746155E-09
     9.899168714054E-01 1.081562500000E+02-1.382485081916E+00-5.051996150204E-09
    -3.060841782060E-10 2.580000000000E+02 2.035000000000E+03 0.000000000000E+00
     3.120000000000E+00 0.000000000000E+00-1.396983861923E-09 0.000000000000E+00
     5.890000000000E+04 0.000000000000E+00 0.000000000000E+00 0.000000000000E+00
E26 2019 01 06 16 10 00 5.050185427535E-03-4.330047431722E-11 0.000000000000E+00
     9.700000000000E+01-1.661562500000E+02 2.890834700583E-09-1.170491253122E+00
    -7.657334208488E-06 3.260556841269E-04 9.182840585709E-07 5.440609231949E+03
     5.820000000000E+04 3.539025783539E-08-8.572856125640E-01 5.587935447693E-08
     9.783141550543E-01 3.298750000000E+02-2.109828246884E+00-5.810599177636E-09
    -2.510818871398E-10 2.580000000000E+02 2.035000000000E+03 0.000000000000E+00
     3.120000000000E+00 0.000000000000E+00 9.313225746155E-10 0.000000000000E+00
     5.890000000000E+04 0.000000000000E+00 0.000000000000E+00 0.000000000000E+00
E27 2019 01 06 16 10 00 5.551219801418E-04-7.688072400924E-12 0.000000000000E+00
     9.700000000000E+01 1.516875000000E+02 2.349026417808E-09 5.378704348169E-01
     6.871297955513E-06 2.080620033666E-04 1.252442598343E-05 5.440634078979E+03
     5.820000000000E+04-8.195638656616E-08-2.949135978711E+00-5.215406417847E-08
     9.898834700598E-01 8.384375000000E+01-9.262509516243E-01-5.114498753688E-09
    -3.021554431299E-10 2.580000000000E+02 2.035000000000E+03 0.000000000000E+00
     3.120000000000E+00 0.000000000000E+00-2.793967723846E-09 0.000000000000E+00
     5.890000000000E+04 0.000000000000E+00 0.000000000000E+00 0.000000000000E+00
E31 2019 01 06 16 10 00 9.394501103088E-04-9.691802915768E-12 0.000000000000E+00
     9.700000000000E+01 1.192812500000E+02 2.402242920203E-09-1.216490631855E+00
     5.595386028290E-06 2.552778460085E-04 1.201592385769E-05 5.440633094788E+03
     5.820000000000E+04 2.421438694000E-08-2.949185006948E+00 1.862645149231E-08
     9.898862861771E-01 9.534375000000E+01-1.528058738969E+00-5.093783605105E-09
    -2.546534644818E-10 2.580000000000E+02 2.035000000000E+03 0.000000000000E+00
     3.120000000000E+00 0.000000000000E+00-2.328306436539E-10 0.000000000000E+00
     5.890000000000E+04 0.000000000000E+00 0.000000000000E+00 0.000000000000E+00
E36 2019 01 06 16 10 00 7.627967279404E-04-4.405364961713E-12 0.000000000000E+00
     9.700000000000E+01-1.658125000000E+02 2.760114969867E-09 1.487406261447E+00
    -7.627531886101E-06 3.245504340157E-04 2.045184373856E-06 5.440600374222E+03
     5.820000000000E+04-2.421438694000E-08-8.662316272585E-01-2.048909664154E-08
     9.852006312522E-01 3.061250000000E+02-1.630842078776E+00-5.661664402476E-09
    -2.439387324559E-10 2.580000000000E+02 2.035000000000E+03 0.000000000000E+00
     3.120000000000E+00 5.600000000000E+01 1.629814505577E-09 0.000000000000E+00
     5.890000000000E+04 0.000000000000E+00 0.000000000000E+00 0.000000000000E+00
E36 2019 01 06 16 10 00 7.627974846400E-04-4.405364961713E-12 0.000000000000E+00
     9.700000000000E+01-1.658125000000E+02 2.760114969867E-09 1.487406261447E+00
    -7.627531886101E-06 3.245504340157E-04 2.045184373856E-06 5.440600374222E+03
     5.820000000000E+04-2.421438694000E-08-8.662316272585E-01-2.048909664154E-08
     9.852006312522E-01 3.061250000000E+02-1.630842078776E+00-5.661664402476E-09
    -2.439387324559E-10 5.210000000000E+02 2.035000000000E+03 0.000000000000E+00
     3.120000000000E+00 4.550000000000E+02 1.629814505577E-09 1.629814505577E-09
     5.891500000000E+04 0.000000000000E+00 0.000000000000E+00 0.000000000000E+00
E18 2019 01 06 16 10 00 5.626297148410E-03-2.846434199455E-11 0.000000000000E+00
     9.700000000000E+01-2.303125000000E+01 1.692213344621E-09-1.585484091605E+00
     8.214265108109E-07 1.664284545695E-01-1.812353730202E-06 5.289360801697E+03
     5.820000000000E+04 7.031485438347E-06-1.444383692790E+00 9.685754776001E-08
     8.817785199690E-01 3.561250000000E+02 1.438062989919E+00-1.739715323269E-09
     1.928651764659E-10 2.580000000000E+02 2.035000000000E+03 0.000000000000E+00
     3.120000000000E+00 5.600000000000E+01 1.420266926289E-08 0.000000000000E+00
     5.900000000000E+04 0.000000000000E+00 0.000000000000E+00 0.000000000000E+00
